{
  "type": "FeatureCollection",
  "features": [
    {
      "type": "Feature",
      "properties": {
        "norad_id": 28051,
        "name": "IRS-P6 (RESOURCESAT-1)",
        "group": "resource",
        "lat": 18.48588841833574,
        "lon": -137.93184003312246,
        "alt_km": 727.7218267732087,
        "timestamp": "2025-12-25T11:37:44.078145+00:00",
        "meta_object_name": "IRS-P6 (RESOURCESAT-1)",
        "meta_object_id": "2003-046A",
        "meta_epoch": "2025-12-25T04:37:05.907072",
        "meta_mean_motion": 14.36079665,
        "meta_eccentricity": 0.0064904,
        "meta_inclination": 98.2158,
        "meta_ra_of_asc_node": 39.0211,
        "meta_arg_of_pericenter": 143.5208,
        "meta_mean_anomaly": 308.1579,
        "meta_ephemeris_type": 0,
        "meta_classification_type": "U",
        "meta_norad_cat_id": 28051,
        "meta_element_set_no": 999,
        "meta_rev_at_epoch": 15555,
        "meta_bstar": 2.4426e-05,
        "meta_mean_motion_dot": 3.2e-07,
        "meta_mean_motion_ddot": 0,
        "tle_line1": "1 28051U 03046A   25359.19242948  .00000032  00000+0  24426-4 0  9998",
        "tle_line2": "2 28051  98.2158  39.0211 0064904 143.5208 308.1579 14.36079665155554"
      },
      "geometry": {
        "type": "Point",
        "coordinates": [
          -137.93184003312246,
          18.48588841833574
        ]
      }
    },
    {
      "type": "Feature",
      "properties": {
        "norad_id": 28220,
        "name": "SHIYAN-1 (SY-1)",
        "group": "resource",
        "lat": -59.3686703136491,
        "lon": 75.32446355820336,
        "alt_km": 484.46304929276175,
        "timestamp": "2025-12-25T11:37:44.078156+00:00",
        "meta_object_name": "SHIYAN-1 (SY-1)",
        "meta_object_id": "2004-012A",
        "meta_epoch": "2025-12-25T02:27:54.100800",
        "meta_mean_motion": 15.28459772,
        "meta_eccentricity": 0.0005104,
        "meta_inclination": 97.8918,
        "meta_ra_of_asc_node": 61.3721,
        "meta_arg_of_pericenter": 272.4584,
        "meta_mean_anomaly": 87.607,
        "meta_ephemeris_type": 0,
        "meta_classification_type": "U",
        "meta_norad_cat_id": 28220,
        "meta_element_set_no": 999,
        "meta_rev_at_epoch": 18445,
        "meta_bstar": 0.00051189,
        "meta_mean_motion_dot": 0.00014115,
        "meta_mean_motion_ddot": 0,
        "tle_line1": "1 28220U 04012A   25359.10270950  .00014115  00000+0  51189-3 0  9997",
        "tle_line2": "2 28220  97.8918  61.3721 0005104 272.4584  87.6070 15.28459772184450"
      },
      "geometry": {
        "type": "Point",
        "coordinates": [
          75.32446355820336,
          -59.3686703136491
        ]
      }
    },
    {
      "type": "Feature",
      "properties": {
        "norad_id": 28376,
        "name": "AURA",
        "group": "resource",
        "lat": 51.095191174375415,
        "lon": 140.21908946526503,
        "alt_km": 684.5085968729936,
        "timestamp": "2025-12-25T11:37:44.078167+00:00",
        "meta_object_name": "AURA",
        "meta_object_id": "2004-026A",
        "meta_epoch": "2025-12-25T02:49:34.504608",
        "meta_mean_motion": 14.60974091,
        "meta_eccentricity": 0.0001437,
        "meta_inclination": 98.3203,
        "meta_ra_of_asc_node": 309.4031,
        "meta_arg_of_pericenter": 90.848,
        "meta_mean_anomaly": 269.2885,
        "meta_ephemeris_type": 0,
        "meta_classification_type": "U",
        "meta_norad_cat_id": 28376,
        "meta_element_set_no": 999,
        "meta_rev_at_epoch": 14079,
        "meta_bstar": 0.00023071,
        "meta_mean_motion_dot": 1.083e-05,
        "meta_mean_motion_ddot": 0,
        "tle_line1": "1 28376U 04026A   25359.11776047  .00001083  00000+0  23071-3 0  9992",
        "tle_line2": "2 28376  98.3203 309.4031 0001437  90.8480 269.2885 14.60974091140799"
      },
      "geometry": {
        "type": "Point",
        "coordinates": [
          140.21908946526503,
          51.095191174375415
        ]
      }
    },
    {
      "type": "Feature",
      "properties": {
        "norad_id": 28649,
        "name": "IRS-P5 (CARTOSAT-1)",
        "group": "resource",
        "lat": -68.88787981017184,
        "lon": -174.7534572044792,
        "alt_km": 604.1792469745242,
        "timestamp": "2025-12-25T11:37:44.078178+00:00",
        "meta_object_name": "IRS-P5 (CARTOSAT-1)",
        "meta_object_id": "2005-017A",
        "meta_epoch": "2025-12-25T02:27:12.423168",
        "meta_mean_motion": 14.90444639,
        "meta_eccentricity": 5.06e-05,
        "meta_inclination": 97.5483,
        "meta_ra_of_asc_node": 24.9669,
        "meta_arg_of_pericenter": 63.7048,
        "meta_mean_anomaly": 296.4223,
        "meta_ephemeris_type": 0,
        "meta_classification_type": "U",
        "meta_norad_cat_id": 28649,
        "meta_element_set_no": 999,
        "meta_rev_at_epoch": 11788,
        "meta_bstar": 0.00017428,
        "meta_mean_motion_dot": 1.647e-05,
        "meta_mean_motion_ddot": 0,
        "tle_line1": "1 28649U 05017A   25359.10222712  .00001647  00000+0  17428-3 0  9995",
        "tle_line2": "2 28649  97.5483  24.9669 0000506  63.7048 296.4223 14.90444639117889"
      },
      "geometry": {
        "type": "Point",
        "coordinates": [
          -174.7534572044792,
          -68.88787981017184
        ]
      }
    },
    {
      "type": "Feature",
      "properties": {
        "norad_id": 28893,
        "name": "SINAH 1",
        "group": "resource",
        "lat": 66.32404416035594,
        "lon": -32.57339533247479,
        "alt_km": 663.0498026835994,
        "timestamp": "2025-12-25T11:37:44.078188+00:00",
        "meta_object_name": "SINAH 1",
        "meta_object_id": "2005-043D",
        "meta_epoch": "2025-12-25T02:55:02.496288",
        "meta_mean_motion": 14.63975075,
        "meta_eccentricity": 0.0015725,
        "meta_inclination": 98.2609,
        "meta_ra_of_asc_node": 127.7124,
        "meta_arg_of_pericenter": 100.9037,
        "meta_mean_anomaly": 259.3935,
        "meta_ephemeris_type": 0,
        "meta_classification_type": "U",
        "meta_norad_cat_id": 28893,
        "meta_element_set_no": 999,
        "meta_rev_at_epoch": 7505,
        "meta_bstar": 9.6921e-05,
        "meta_mean_motion_dot": 4.59e-06,
        "meta_mean_motion_ddot": 0,
        "tle_line1": "1 28893U 05043D   25359.12155667  .00000459  00000+0  96921-4 0  9997",
        "tle_line2": "2 28893  98.2609 127.7124 0015725 100.9037 259.3935 14.63975075 75050"
      },
      "geometry": {
        "type": "Point",
        "coordinates": [
          -32.57339533247479,
          66.32404416035594
        ]
      }
    },
    {
      "type": "Feature",
      "properties": {
        "norad_id": 29079,
        "name": "EROS B",
        "group": "resource",
        "lat": -48.32077191039705,
        "lon": 125.03364807829928,
        "alt_km": 355.71835279256175,
        "timestamp": "2025-12-25T11:37:44.078199+00:00",
        "meta_object_name": "EROS B",
        "meta_object_id": "2006-014A",
        "meta_epoch": "2025-12-25T05:43:36.950304",
        "meta_mean_motion": 15.7238717,
        "meta_eccentricity": 0.0004405,
        "meta_inclination": 97.345,
        "meta_ra_of_asc_node": 116.4438,
        "meta_arg_of_pericenter": 312.4359,
        "meta_mean_anomaly": 47.6532,
        "meta_ephemeris_type": 0,
        "meta_classification_type": "U",
        "meta_norad_cat_id": 29079,
        "meta_element_set_no": 999,
        "meta_rev_at_epoch": 9276,
        "meta_bstar": 0.0016088,
        "meta_mean_motion_dot": 0.00218424,
        "meta_mean_motion_ddot": 0,
        "tle_line1": "1 29079U 06014A   25359.23862211  .00218424  00000+0  16088-2 0  9992",
        "tle_line2": "2 29079  97.3450 116.4438 0004405 312.4359  47.6532 15.72387170 92766"
      },
      "geometry": {
        "type": "Point",
        "coordinates": [
          125.03364807829928,
          -48.32077191039705
        ]
      }
    },
    {
      "type": "Feature",
      "properties": {
        "norad_id": 29228,
        "name": "RESURS-DK 1",
        "group": "resource",
        "lat": 63.031305507934725,
        "lon": -157.0189403192478,
        "alt_km": 526.2101515211234,
        "timestamp": "2025-12-25T11:37:44.078210+00:00",
        "meta_object_name": "RESURS-DK 1",
        "meta_object_id": "2006-021A",
        "meta_epoch": "2025-12-24T14:30:47.970432",
        "meta_mean_motion": 15.12224408,
        "meta_eccentricity": 0.00068986,
        "meta_inclination": 69.9337,
        "meta_ra_of_asc_node": 71.174,
        "meta_arg_of_pericenter": 248.2576,
        "meta_mean_anomaly": 111.7856,
        "meta_ephemeris_type": 0,
        "meta_classification_type": "U",
        "meta_norad_cat_id": 29228,
        "meta_element_set_no": 999,
        "meta_rev_at_epoch": 7617,
        "meta_bstar": 0.00017407091,
        "meta_mean_motion_dot": 2.909e-05,
        "meta_mean_motion_ddot": 0,
        "tle_line1": "1 29228U 06021A   25358.60472188  .00002909  00000+0  17407-3 0  9992",
        "tle_line2": "2 29228  69.9337  71.1740 0006898 248.2576 111.7856 15.12224408 76176"
      },
      "geometry": {
        "type": "Point",
        "coordinates": [
          -157.0189403192478,
          63.031305507934725
        ]
      }
    }
  ]
}